{"type":"FeatureCollection","features":[{"type":"Feature","geometry":{"type":"Point","coordinates":[-62.9982,7.7659]},"properties":{"id":"WRI1018677","nombre":"Simon Bolivar (Guri)","tipo":"central","sector":"energia","clase":"hidro","combustible":"Hydro","capacidad_mw":8851,"estado":"desconocido","inicio_operacion":null,"operadora":null,"notas":"http://www.mppee.gob.ve/download/anuario_estad%C3%ADstico/Anuario_2013.pdf","origen_coordenada":"GEODB","fuente":"WRI Global Power Plant Database v1.3.0 (CC BY 4.0)","confianza":"media","ultima_verificacion":"2026-09-15"}},{"type":"Feature","geometry":{"type":"Point","coordinates":[-62.6677,8.3039]},"properties":{"id":"WRI1018635","nombre":"Antonio Jose de Sucre (Macagua)","tipo":"central","sector":"energia","clase":"hidro","combustible":"Hydro","capacidad_mw":2930,"estado":"desconocido","inicio_operacion":null,"operadora":null,"notas":"http://www.mppee.gob.ve/download/anuario_estad%C3%ADstico/Anuario_2013.pdf","origen_coordenada":"GEODB","fuente":"WRI Global Power Plant Database v1.3.0 (CC BY 4.0)","confianza":"media","ultima_verificacion":"2026-09-15"}},{"type":"Feature","geometry":{"type":"Point","coordinates":[-63.0322,7.8997]},"properties":{"id":"WRI1061137","nombre":"Manuel Piar (Tocoma) Hydroelectric Power Plant Venezuela","tipo":"central","sector":"energia","clase":"hidro","combustible":"Hydro","capacidad_mw":2530,"estado":"desconocido","inicio_operacion":"2017","operadora":"Government  CVG Electrification del Caroni CA (Edelca)","notas":"http://globalenergyobservatory.org/form.php?pid=43180","origen_coordenada":"GEODB","fuente":"WRI Global Power Plant Database v1.3.0 (CC BY 4.0)","confianza":"media","ultima_verificacion":"2026-09-15"}},{"type":"Feature","geometry":{"type":"Point","coordinates":[-62.8,8.16]},"properties":{"id":"WRI1018645","nombre":"Fransisco de Miranda (Caruachi)","tipo":"central","sector":"energia","clase":"hidro","combustible":"Hydro","capacidad_mw":2196,"estado":"desconocido","inicio_operacion":null,"operadora":null,"notas":"http://www.mppee.gob.ve/download/anuario_estad%C3%ADstico/Anuario_2013.pdf","origen_coordenada":"GEODB","fuente":"WRI Global Power Plant Database v1.3.0 (CC BY 4.0)","confianza":"media","ultima_verificacion":"2026-09-15"}},{"type":"Feature","geometry":{"type":"Point","coordinates":[-68.1552,10.4949]},"properties":{"id":"WRI1018665","nombre":"Planta Centro","tipo":"central","sector":"energia","clase":"termo","combustible":"Gas","capacidad_mw":2000,"estado":"desconocido","inicio_operacion":null,"operadora":null,"notas":"http://www.mppee.gob.ve/download/anuario_estad%C3%ADstico/Anuario_2013.pdf","origen_coordenada":"GEODB","fuente":"WRI Global Power Plant Database v1.3.0 (CC BY 4.0)","confianza":"media","ultima_verificacion":"2026-09-15"}},{"type":"Feature","geometry":{"type":"Point","coordinates":[-67.0806,10.5877]},"properties":{"id":"WRI1061135","nombre":"Ricardo Zuloaga (Tacoa) Thermal Power Plant Venezuela","tipo":"central","sector":"energia","clase":"termo","combustible":"Gas","capacidad_mw":1720,"estado":"desconocido","inicio_operacion":"1956","operadora":"Government  Operating: La Electricidad de Caracas (EDC)","notas":"http://globalenergyobservatory.org/form.php?pid=43128","origen_coordenada":"GEODB","fuente":"WRI Global Power Plant Database v1.3.0 (CC BY 4.0)","confianza":"media","ultima_verificacion":"2026-09-15"}},{"type":"Feature","geometry":{"type":"Point","coordinates":[-71.6354,10.4885]},"properties":{"id":"WRI1018651","nombre":"Josefa Joaquina Sanchez","tipo":"central","sector":"energia","clase":"termo","combustible":"Gas","capacidad_mw":1586,"estado":"desconocido","inicio_operacion":null,"operadora":null,"notas":"http://www.mppee.gob.ve/download/anuario_estad%C3%ADstico/Anuario_2013.pdf","origen_coordenada":"WRI","fuente":"WRI Global Power Plant Database v1.3.0 (CC BY 4.0)","confianza":"media","ultima_verificacion":"2026-09-15"}},{"type":"Feature","geometry":{"type":"Point","coordinates":[-71.6354,10.4883]},"properties":{"id":"WRI1018680","nombre":"Termozulia","tipo":"central","sector":"energia","clase":"termo","combustible":"Gas","capacidad_mw":1300,"estado":"desconocido","inicio_operacion":null,"operadora":null,"notas":"http://www.mppee.gob.ve/download/anuario_estad%C3%ADstico/Anuario_2013.pdf","origen_coordenada":"GEODB","fuente":"WRI Global Power Plant Database v1.3.0 (CC BY 4.0)","confianza":"media","ultima_verificacion":"2026-09-15"}},{"type":"Feature","geometry":{"type":"Point","coordinates":[-71.6135,10.5977]},"properties":{"id":"WRI1018672","nombre":"Ramon Laguna","tipo":"central","sector":"energia","clase":"termo","combustible":"Gas","capacidad_mw":660,"estado":"desconocido","inicio_operacion":null,"operadora":null,"notas":"http://www.mppee.gob.ve/download/anuario_estad%C3%ADstico/Anuario_2013.pdf","origen_coordenada":"GEODB","fuente":"WRI Global Power Plant Database v1.3.0 (CC BY 4.0)","confianza":"media","ultima_verificacion":"2026-09-15"}},{"type":"Feature","geometry":{"type":"Point","coordinates":[-71.4668,7.747]},"properties":{"id":"WRI1061136","nombre":"Fabricio Ojeda (La Vueltosa) Hydroelectric Power Plant Venezuela","tipo":"central","sector":"energia","clase":"hidro","combustible":"Hydro","capacidad_mw":514,"estado":"desconocido","inicio_operacion":"2011","operadora":"La Electricidad de Caracas (EDC)","notas":"http://globalenergyobservatory.org/form.php?pid=43179","origen_coordenada":"WRI","fuente":"WRI Global Power Plant Database v1.3.0 (CC BY 4.0)","confianza":"media","ultima_verificacion":"2026-09-15"}},{"type":"Feature","geometry":{"type":"Point","coordinates":[-70.1716,11.75]},"properties":{"id":"WRI1018650","nombre":"Josefa Camejo","tipo":"central","sector":"energia","clase":"termo","combustible":"Gas","capacidad_mw":450,"estado":"desconocido","inicio_operacion":null,"operadora":null,"notas":"http://www.mppee.gob.ve/download/anuario_estad%C3%ADstico/Anuario_2013.pdf","origen_coordenada":"GEODB","fuente":"WRI Global Power Plant Database v1.3.0 (CC BY 4.0)","confianza":"media","ultima_verificacion":"2026-09-15"}},{"type":"Feature","geometry":{"type":"Point","coordinates":[-71.6354,10.4883]},"properties":{"id":"WRI1061138","nombre":"Termozulia II","tipo":"central","sector":"energia","clase":"termo","combustible":"Gas","capacidad_mw":450,"estado":"desconocido","inicio_operacion":"2011","operadora":"Government  Operating : CORPOELEC - Empresa Electrica Socialista","notas":"http://globalenergyobservatory.org/form.php?pid=43125","origen_coordenada":"GEODB","fuente":"WRI Global Power Plant Database v1.3.0 (CC BY 4.0)","confianza":"media","ultima_verificacion":"2026-09-15"}},{"type":"Feature","geometry":{"type":"Point","coordinates":[-71.6329,10.4856]},"properties":{"id":"WRI1061139","nombre":"Termozulia III","tipo":"central","sector":"energia","clase":"termo","combustible":"Gas","capacidad_mw":450,"estado":"desconocido","inicio_operacion":"2012","operadora":"Government  Operating : CORPOELEC - Empresa Electrica Socialista","notas":"http://globalenergyobservatory.org/form.php?pid=43125","origen_coordenada":"WRI","fuente":"WRI Global Power Plant Database v1.3.0 (CC BY 4.0)","confianza":"media","ultima_verificacion":"2026-09-15"}},{"type":"Feature","geometry":{"type":"Point","coordinates":[-68.1492,10.4839]},"properties":{"id":"WRI1018679","nombre":"Termocarabobo","tipo":"central","sector":"energia","clase":"termo","combustible":"Gas","capacidad_mw":380,"estado":"desconocido","inicio_operacion":null,"operadora":null,"notas":"http://www.mppee.gob.ve/download/anuario_estad%C3%ADstico/Anuario_2013.pdf","origen_coordenada":"WRI","fuente":"WRI Global Power Plant Database v1.3.0 (CC BY 4.0)","confianza":"media","ultima_verificacion":"2026-09-15"}},{"type":"Feature","geometry":{"type":"Point","coordinates":[-63.8898,10.9387]},"properties":{"id":"WRI1018658","nombre":"Luisa Caraceres de Arismendi","tipo":"central","sector":"energia","clase":"termo","combustible":"Gas","capacidad_mw":367,"estado":"desconocido","inicio_operacion":null,"operadora":null,"notas":"http://www.mppee.gob.ve/download/anuario_estad%C3%ADstico/Anuario_2013.pdf","origen_coordenada":"WRI","fuente":"WRI Global Power Plant Database v1.3.0 (CC BY 4.0)","confianza":"media","ultima_verificacion":"2026-09-15"}},{"type":"Feature","geometry":{"type":"Point","coordinates":[-66.6813,10.2898]},"properties":{"id":"WRI1018642","nombre":"El Sitio","tipo":"central","sector":"energia","clase":"termo","combustible":"Gas","capacidad_mw":360,"estado":"desconocido","inicio_operacion":null,"operadora":null,"notas":"http://www.mppee.gob.ve/download/anuario_estad%C3%ADstico/Anuario_2013.pdf","origen_coordenada":"GEODB","fuente":"WRI Global Power Plant Database v1.3.0 (CC BY 4.0)","confianza":"media","ultima_verificacion":"2026-09-15"}},{"type":"Feature","geometry":{"type":"Point","coordinates":[-67.0793,10.5921]},"properties":{"id":"WRI1018639","nombre":"Barcazas Josefa Rufina y Margarita","tipo":"central","sector":"energia","clase":"termo","combustible":"Gas","capacidad_mw":340,"estado":"desconocido","inicio_operacion":null,"operadora":null,"notas":"http://www.mppee.gob.ve/download/anuario_estad%C3%ADstico/Anuario_2013.pdf","origen_coordenada":"WRI","fuente":"WRI Global Power Plant Database v1.3.0 (CC BY 4.0)","confianza":"media","ultima_verificacion":"2026-09-15"}},{"type":"Feature","geometry":{"type":"Point","coordinates":[-66.7922,10.2561]},"properties":{"id":"WRI1018656","nombre":"La raisa","tipo":"central","sector":"energia","clase":"termo","combustible":"Gas","capacidad_mw":310,"estado":"desconocido","inicio_operacion":null,"operadora":null,"notas":"http://www.mppee.gob.ve/download/anuario_estad%C3%ADstico/Anuario_2013.pdf","origen_coordenada":"GEODB","fuente":"WRI Global Power Plant Database v1.3.0 (CC BY 4.0)","confianza":"media","ultima_verificacion":"2026-09-15"}},{"type":"Feature","geometry":{"type":"Point","coordinates":[-64.6102,10.2211]},"properties":{"id":"WRI1018633","nombre":"Alberto Lovera","tipo":"central","sector":"energia","clase":"termo","combustible":"Gas","capacidad_mw":300,"estado":"desconocido","inicio_operacion":null,"operadora":null,"notas":"http://www.mppee.gob.ve/download/anuario_estad%C3%ADstico/Anuario_2013.pdf","origen_coordenada":"WRI","fuente":"WRI Global Power Plant Database v1.3.0 (CC BY 4.0)","confianza":"media","ultima_verificacion":"2026-09-15"}},{"type":"Feature","geometry":{"type":"Point","coordinates":[-64.4965,9.3699]},"properties":{"id":"WRI1018634","nombre":"Alfredo Salazar (Anaco)","tipo":"central","sector":"energia","clase":"termo","combustible":"Gas","capacidad_mw":300,"estado":"desconocido","inicio_operacion":null,"operadora":null,"notas":"http://www.mppee.gob.ve/download/anuario_estad%C3%ADstico/Anuario_2013.pdf","origen_coordenada":"WRI","fuente":"WRI Global Power Plant Database v1.3.0 (CC BY 4.0)","confianza":"media","ultima_verificacion":"2026-09-15"}},{"type":"Feature","geometry":{"type":"Point","coordinates":[-71.7146,7.8535]},"properties":{"id":"WRI1018657","nombre":"Leanardo Ruiz Pineda (San Agaton)","tipo":"central","sector":"energia","clase":"hidro","combustible":"Hydro","capacidad_mw":300,"estado":"desconocido","inicio_operacion":null,"operadora":null,"notas":"http://www.mppee.gob.ve/download/anuario_estad%C3%ADstico/Anuario_2013.pdf","origen_coordenada":"WRI","fuente":"WRI Global Power Plant Database v1.3.0 (CC BY 4.0)","confianza":"media","ultima_verificacion":"2026-09-15"}},{"type":"Feature","geometry":{"type":"Point","coordinates":[-67.9462,10.1771]},"properties":{"id":"WRI1018660","nombre":"Pedro Camejo","tipo":"central","sector":"energia","clase":"termo","combustible":"Gas","capacidad_mw":300,"estado":"desconocido","inicio_operacion":null,"operadora":null,"notas":"http://www.mppee.gob.ve/download/anuario_estad%C3%ADstico/Anuario_2013.pdf","origen_coordenada":"GEODB","fuente":"WRI Global Power Plant Database v1.3.0 (CC BY 4.0)","confianza":"media","ultima_verificacion":"2026-09-15"}},{"type":"Feature","geometry":{"type":"Point","coordinates":[-72.2439,8.2203]},"properties":{"id":"WRI1018669","nombre":"Planta Tachira","tipo":"central","sector":"energia","clase":"termo","combustible":"Gas","capacidad_mw":247,"estado":"desconocido","inicio_operacion":null,"operadora":null,"notas":"http://www.mppee.gob.ve/download/anuario_estad%C3%ADstico/Anuario_2013.pdf","origen_coordenada":"CARMA","fuente":"WRI Global Power Plant Database v1.3.0 (CC BY 4.0)","confianza":"baja","ultima_verificacion":"2026-09-15"}},{"type":"Feature","geometry":{"type":"Point","coordinates":[-70.5145,8.8246]},"properties":{"id":"WRI1018648","nombre":"Jose Antonio Paez (Planta Paez)","tipo":"central","sector":"energia","clase":"hidro","combustible":"Hydro","capacidad_mw":240,"estado":"desconocido","inicio_operacion":null,"operadora":null,"notas":"http://www.mppee.gob.ve/download/anuario_estad%C3%ADstico/Anuario_2013.pdf","origen_coordenada":"CARMA","fuente":"WRI Global Power Plant Database v1.3.0 (CC BY 4.0)","confianza":"baja","ultima_verificacion":"2026-09-15"}},{"type":"Feature","geometry":{"type":"Point","coordinates":[-71.6406,10.6317]},"properties":{"id":"WRI1018671","nombre":"Rafael Urdaneta","tipo":"central","sector":"energia","clase":"termo","combustible":"Gas","capacidad_mw":224,"estado":"desconocido","inicio_operacion":null,"operadora":null,"notas":"http://www.mppee.gob.ve/download/anuario_estad%C3%ADstico/Anuario_2013.pdf","origen_coordenada":"CARMA","fuente":"WRI Global Power Plant Database v1.3.0 (CC BY 4.0)","confianza":"baja","ultima_verificacion":"2026-09-15"}},{"type":"Feature","geometry":{"type":"Point","coordinates":[-70.1996,11.6956]},"properties":{"id":"WRI1018670","nombre":"Punto Fijo","tipo":"central","sector":"energia","clase":"termo","combustible":"Gas","capacidad_mw":199,"estado":"desconocido","inicio_operacion":null,"operadora":null,"notas":"http://www.mppee.gob.ve/download/anuario_estad%C3%ADstico/Anuario_2013.pdf","origen_coordenada":"CARMA","fuente":"WRI Global Power Plant Database v1.3.0 (CC BY 4.0)","confianza":"baja","ultima_verificacion":"2026-09-15"}},{"type":"Feature","geometry":{"type":"Point","coordinates":[-64.5955,10.2345]},"properties":{"id":"WRI1018646","nombre":"Guanta","tipo":"central","sector":"energia","clase":"termo","combustible":"Gas","capacidad_mw":174,"estado":"desconocido","inicio_operacion":null,"operadora":null,"notas":"http://www.mppee.gob.ve/download/anuario_estad%C3%ADstico/Anuario_2013.pdf","origen_coordenada":"CARMA","fuente":"WRI Global Power Plant Database v1.3.0 (CC BY 4.0)","confianza":"baja","ultima_verificacion":"2026-09-15"}},{"type":"Feature","geometry":{"type":"Point","coordinates":[-70.1049,8.607]},"properties":{"id":"WRI1018678","nombre":"Termobarrancas II","tipo":"central","sector":"energia","clase":"termo","combustible":"Gas","capacidad_mw":161,"estado":"desconocido","inicio_operacion":null,"operadora":null,"notas":"http://www.mppee.gob.ve/download/anuario_estad%C3%ADstico/Anuario_2013.pdf","origen_coordenada":"CARMA","fuente":"WRI Global Power Plant Database v1.3.0 (CC BY 4.0)","confianza":"baja","ultima_verificacion":"2026-09-15"}},{"type":"Feature","geometry":{"type":"Point","coordinates":[-66.5572,10.4889]},"properties":{"id":"WRI1018647","nombre":"Guarenas","tipo":"central","sector":"energia","clase":"termo","combustible":"Gas","capacidad_mw":156,"estado":"desconocido","inicio_operacion":"2012","operadora":null,"notas":"http://www.mppee.gob.ve/download/anuario_estad%C3%ADstico/Anuario_2013.pdf","origen_coordenada":"WRI","fuente":"WRI Global Power Plant Database v1.3.0 (CC BY 4.0)","confianza":"media","ultima_verificacion":"2026-09-15"}},{"type":"Feature","geometry":{"type":"Point","coordinates":[-68.0076,10.162]},"properties":{"id":"WRI1018667","nombre":"Planta del Este","tipo":"central","sector":"energia","clase":"termo","combustible":"Gas","capacidad_mw":141,"estado":"desconocido","inicio_operacion":null,"operadora":null,"notas":"http://www.mppee.gob.ve/download/anuario_estad%C3%ADstico/Anuario_2013.pdf","origen_coordenada":"CARMA","fuente":"WRI Global Power Plant Database v1.3.0 (CC BY 4.0)","confianza":"baja","ultima_verificacion":"2026-09-15"}},{"type":"Feature","geometry":{"type":"Point","coordinates":[-69.3228,10.0739]},"properties":{"id":"WRI1018643","nombre":"Enelbar","tipo":"central","sector":"energia","clase":"termo","combustible":"Gas","capacidad_mw":130,"estado":"desconocido","inicio_operacion":null,"operadora":null,"notas":"http://www.mppee.gob.ve/download/anuario_estad%C3%ADstico/Anuario_2013.pdf","origen_coordenada":"CARMA","fuente":"WRI Global Power Plant Database v1.3.0 (CC BY 4.0)","confianza":"baja","ultima_verificacion":"2026-09-15"}},{"type":"Feature","geometry":{"type":"Point","coordinates":[-64.0328,10.8792]},"properties":{"id":"WRI1018653","nombre":"Juan Buatista Arismendi","tipo":"central","sector":"energia","clase":"termo","combustible":"Gas","capacidad_mw":115,"estado":"desconocido","inicio_operacion":"2013","operadora":null,"notas":"http://www.mppee.gob.ve/download/anuario_estad%C3%ADstico/Anuario_2013.pdf","origen_coordenada":"WRI","fuente":"WRI Global Power Plant Database v1.3.0 (CC BY 4.0)","confianza":"media","ultima_verificacion":"2026-09-15"}},{"type":"Feature","geometry":{"type":"Point","coordinates":[-69.6734,11.4045]},"properties":{"id":"WRI1018666","nombre":"Planta Coro","tipo":"central","sector":"energia","clase":"termo","combustible":"Gas","capacidad_mw":101,"estado":"desconocido","inicio_operacion":null,"operadora":null,"notas":"http://www.mppee.gob.ve/download/anuario_estad%C3%ADstico/Anuario_2013.pdf","origen_coordenada":"CARMA","fuente":"WRI Global Power Plant Database v1.3.0 (CC BY 4.0)","confianza":"baja","ultima_verificacion":"2026-09-15"}},{"type":"Feature","geometry":{"type":"Point","coordinates":[-71.649,10.5032]},"properties":{"id":"WRI1018638","nombre":"Bajo Grande","tipo":"central","sector":"energia","clase":"termo","combustible":"Gas","capacidad_mw":90,"estado":"desconocido","inicio_operacion":null,"operadora":null,"notas":"http://www.mppee.gob.ve/download/anuario_estad%C3%ADstico/Anuario_2013.pdf","origen_coordenada":"WRI","fuente":"WRI Global Power Plant Database v1.3.0 (CC BY 4.0)","confianza":"media","ultima_verificacion":"2026-09-15"}},{"type":"Feature","geometry":{"type":"Point","coordinates":[-67.4724,7.8878]},"properties":{"id":"WRI1018673","nombre":"San Fernando","tipo":"central","sector":"energia","clase":"termo","combustible":"Gas","capacidad_mw":90,"estado":"desconocido","inicio_operacion":null,"operadora":null,"notas":"http://www.mppee.gob.ve/download/anuario_estad%C3%ADstico/Anuario_2013.pdf","origen_coordenada":"CARMA","fuente":"WRI Global Power Plant Database v1.3.0 (CC BY 4.0)","confianza":"baja","ultima_verificacion":"2026-09-15"}},{"type":"Feature","geometry":{"type":"Point","coordinates":[-67.9529,10.1884]},"properties":{"id":"WRI1061134","nombre":"Castillito Gas Power Plant Venezuela","tipo":"central","sector":"energia","clase":"termo","combustible":"Gas","capacidad_mw":85,"estado":"desconocido","inicio_operacion":"1975","operadora":"Operating: CA La Electricidad de Valencia (Eleval)","notas":"http://globalenergyobservatory.org/form.php?pid=43123","origen_coordenada":"WRI","fuente":"WRI Global Power Plant Database v1.3.0 (CC BY 4.0)","confianza":"media","ultima_verificacion":"2026-09-15"}},{"type":"Feature","geometry":{"type":"Point","coordinates":[-72.5197,8.7449]},"properties":{"id":"WRI1018640","nombre":"Casigua","tipo":"central","sector":"energia","clase":"termo","combustible":"Gas","capacidad_mw":83,"estado":"desconocido","inicio_operacion":null,"operadora":null,"notas":"http://www.mppee.gob.ve/download/anuario_estad%C3%ADstico/Anuario_2013.pdf","origen_coordenada":"CARMA","fuente":"WRI Global Power Plant Database v1.3.0 (CC BY 4.0)","confianza":"baja","ultima_verificacion":"2026-09-15"}},{"type":"Feature","geometry":{"type":"Point","coordinates":[-70.2075,8.6226]},"properties":{"id":"WRI1018652","nombre":"Juan Antonio Rodriguez (Pena Larga)","tipo":"central","sector":"energia","clase":"hidro","combustible":"Hydro","capacidad_mw":80,"estado":"desconocido","inicio_operacion":null,"operadora":null,"notas":"http://www.mppee.gob.ve/download/anuario_estad%C3%ADstico/Anuario_2013.pdf","origen_coordenada":"CARMA","fuente":"WRI Global Power Plant Database v1.3.0 (CC BY 4.0)","confianza":"baja","ultima_verificacion":"2026-09-15"}},{"type":"Feature","geometry":{"type":"Point","coordinates":[-70.1996,11.6956]},"properties":{"id":"WRI1018664","nombre":"Planta Camejo","tipo":"central","sector":"energia","clase":"termo","combustible":"Gas","capacidad_mw":61,"estado":"desconocido","inicio_operacion":null,"operadora":null,"notas":"http://www.mppee.gob.ve/download/anuario_estad%C3%ADstico/Anuario_2013.pdf","origen_coordenada":"CARMA","fuente":"WRI Global Power Plant Database v1.3.0 (CC BY 4.0)","confianza":"baja","ultima_verificacion":"2026-09-15"}},{"type":"Feature","geometry":{"type":"Point","coordinates":[-71.0659,9.7856]},"properties":{"id":"WRI1018674","nombre":"San Lorenzo","tipo":"central","sector":"energia","clase":"termo","combustible":"Gas","capacidad_mw":40,"estado":"desconocido","inicio_operacion":null,"operadora":null,"notas":"http://www.mppee.gob.ve/download/anuario_estad%C3%ADstico/Anuario_2013.pdf","origen_coordenada":"CARMA","fuente":"WRI Global Power Plant Database v1.3.0 (CC BY 4.0)","confianza":"baja","ultima_verificacion":"2026-09-15"}},{"type":"Feature","geometry":{"type":"Point","coordinates":[-67.4593,10.1863]},"properties":{"id":"WRI1018681","nombre":"Turboven","tipo":"central","sector":"energia","clase":"termo","combustible":"Gas","capacidad_mw":40,"estado":"desconocido","inicio_operacion":null,"operadora":null,"notas":"http://www.mppee.gob.ve/download/anuario_estad%C3%ADstico/Anuario_2013.pdf","origen_coordenada":"CARMA","fuente":"WRI Global Power Plant Database v1.3.0 (CC BY 4.0)","confianza":"baja","ultima_verificacion":"2026-09-15"}},{"type":"Feature","geometry":{"type":"Point","coordinates":[-70.0989,8.8363]},"properties":{"id":"WRI1018659","nombre":"Masparro","tipo":"central","sector":"energia","clase":"hidro","combustible":"Hydro","capacidad_mw":25,"estado":"desconocido","inicio_operacion":null,"operadora":null,"notas":"http://www.mppee.gob.ve/download/anuario_estad%C3%ADstico/Anuario_2013.pdf","origen_coordenada":"GEODB","fuente":"WRI Global Power Plant Database v1.3.0 (CC BY 4.0)","confianza":"media","ultima_verificacion":"2026-09-15"}},{"type":"Feature","geometry":{"type":"Point","coordinates":[-71.9136,8.9948]},"properties":{"id":"WRI1018675","nombre":"Santa Barbara","tipo":"central","sector":"energia","clase":"termo","combustible":"Gas","capacidad_mw":20,"estado":"desconocido","inicio_operacion":null,"operadora":null,"notas":"http://www.mppee.gob.ve/download/anuario_estad%C3%ADstico/Anuario_2013.pdf","origen_coordenada":"CARMA","fuente":"WRI Global Power Plant Database v1.3.0 (CC BY 4.0)","confianza":"baja","ultima_verificacion":"2026-09-15"}}]}