{"type":"FeatureCollection","features":[{"type":"Feature","geometry":{"type":"Point","coordinates":[-58.9426,5.1243]},"properties":{"id":"pais-GUY","clase":"pais","nombre":"Guyana","nombre_en":"Guyana","rango":1,"fuente":"Natural Earth 1:10m (dominio publico)","confianza":"media","ultima_verificacion":"2026-09-10"}},{"type":"Feature","geometry":{"type":"Point","coordinates":[-63.3665,2.679]},"properties":{"id":"pais-BRA","clase":"pais","nombre":"Brasil","nombre_en":"Brazil","rango":1,"derivado":true,"nota":"Punto de etiqueta calculado por este proyecto: el de Natural Earth cae fuera de la ventana del mapa. Solo posiciona el rotulo; no afirma nada sobre el territorio.","fuente":"Natural Earth 1:10m (dominio publico)","confianza":"baja","ultima_verificacion":"2026-09-10"}},{"type":"Feature","geometry":{"type":"Point","coordinates":[-73.1743,3.3731]},"properties":{"id":"pais-COL","clase":"pais","nombre":"Colombia","nombre_en":"Colombia","rango":1,"fuente":"Natural Earth 1:10m (dominio publico)","confianza":"media","ultima_verificacion":"2026-09-10"}},{"type":"Feature","geometry":{"type":"Point","coordinates":[-64.5994,7.1825]},"properties":{"id":"pais-VEN","clase":"pais","nombre":"Venezuela","nombre_en":"Venezuela","rango":1,"fuente":"Natural Earth 1:10m (dominio publico)","confianza":"media","ultima_verificacion":"2026-09-10"}},{"type":"Feature","geometry":{"type":"Point","coordinates":[-68.9206,12.145]},"properties":{"id":"pais-CUW","clase":"pais","nombre":"Curazao","nombre_en":"Curaçao","rango":1,"fuente":"Natural Earth 1:10m (dominio publico)","confianza":"media","ultima_verificacion":"2026-09-10"}},{"type":"Feature","geometry":{"type":"Point","coordinates":[-69.9728,12.5174]},"properties":{"id":"pais-ABW","clase":"pais","nombre":"Aruba","nombre_en":"Aruba","rango":1,"fuente":"Natural Earth 1:10m (dominio publico)","confianza":"media","ultima_verificacion":"2026-09-10"}},{"type":"Feature","geometry":{"type":"Point","coordinates":[-60.9184,10.9989]},"properties":{"id":"pais-TTO","clase":"pais","nombre":"Trinidad y Tobago","nombre_en":"Trinidad and Tobago","rango":1,"fuente":"Natural Earth 1:10m (dominio publico)","confianza":"media","ultima_verificacion":"2026-09-10"}},{"type":"Feature","geometry":{"type":"Point","coordinates":[-61.6805,12.1132]},"properties":{"id":"pais-GRD","clase":"pais","nombre":"Granada","nombre_en":"Grenada","rango":1,"fuente":"Natural Earth 1:10m (dominio publico)","confianza":"media","ultima_verificacion":"2026-09-10"}},{"type":"Feature","geometry":{"type":"Point","coordinates":[-61.5863,8.7891]},"properties":{"id":"estado-VE-Y","clase":"estado","nombre":"Delta Amacuro","nombre_en":"Delta Amacuro","rango":2,"fuente":"Natural Earth 1:10m (dominio publico)","confianza":"media","ultima_verificacion":"2026-09-10"}},{"type":"Feature","geometry":{"type":"Point","coordinates":[-63.8628,6.0061]},"properties":{"id":"estado-VE-F","clase":"estado","nombre":"Bolívar","nombre_en":"Bolívar","rango":2,"fuente":"Natural Earth 1:10m (dominio publico)","confianza":"media","ultima_verificacion":"2026-09-10"}},{"type":"Feature","geometry":{"type":"Point","coordinates":[-65.6187,3.3619]},"properties":{"id":"estado-VE-Z","clase":"estado","nombre":"Amazonas","nombre_en":"Amazonas","rango":2,"fuente":"Natural Earth 1:10m (dominio publico)","confianza":"media","ultima_verificacion":"2026-09-10"}},{"type":"Feature","geometry":{"type":"Point","coordinates":[-72.5482,9.5847]},"properties":{"id":"estado-VE-V","clase":"estado","nombre":"Zulia","nombre_en":"Zulia","rango":2,"fuente":"Natural Earth 1:10m (dominio publico)","confianza":"media","ultima_verificacion":"2026-09-10"}},{"type":"Feature","geometry":{"type":"Point","coordinates":[-72.0039,7.8573]},"properties":{"id":"estado-VE-S","clase":"estado","nombre":"Táchira","nombre_en":"Tachira","rango":2,"fuente":"Natural Earth 1:10m (dominio publico)","confianza":"media","ultima_verificacion":"2026-09-10"}},{"type":"Feature","geometry":{"type":"Point","coordinates":[-68.55,7.0405]},"properties":{"id":"estado-VE-C","clase":"estado","nombre":"Apure","nombre_en":"Apure","rango":2,"fuente":"Natural Earth 1:10m (dominio publico)","confianza":"media","ultima_verificacion":"2026-09-10"}},{"type":"Feature","geometry":{"type":"Point","coordinates":[-71.2398,8.491]},"properties":{"id":"estado-VE-L","clase":"estado","nombre":"Mérida","nombre_en":"Merida","rango":2,"fuente":"Natural Earth 1:10m (dominio publico)","confianza":"media","ultima_verificacion":"2026-09-10"}},{"type":"Feature","geometry":{"type":"Point","coordinates":[-70.5519,9.4951]},"properties":{"id":"estado-VE-T","clase":"estado","nombre":"Trujillo","nombre_en":"Trujillo","rango":2,"fuente":"Natural Earth 1:10m (dominio publico)","confianza":"media","ultima_verificacion":"2026-09-10"}},{"type":"Feature","geometry":{"type":"Point","coordinates":[-69.7604,11.0897]},"properties":{"id":"estado-VE-I","clase":"estado","nombre":"Falcón","nombre_en":"Falcón","rango":2,"fuente":"Natural Earth 1:10m (dominio publico)","confianza":"media","ultima_verificacion":"2026-09-10"}},{"type":"Feature","geometry":{"type":"Point","coordinates":[-68.7447,10.3466]},"properties":{"id":"estado-VE-U","clase":"estado","nombre":"Yaracuy","nombre_en":"Yaracuy","rango":2,"fuente":"Natural Earth 1:10m (dominio publico)","confianza":"media","ultima_verificacion":"2026-09-10"}},{"type":"Feature","geometry":{"type":"Point","coordinates":[-67.9745,10.1548]},"properties":{"id":"estado-VE-G","clase":"estado","nombre":"Carabobo","nombre_en":"Carabobo","rango":2,"fuente":"Natural Earth 1:10m (dominio publico)","confianza":"media","ultima_verificacion":"2026-09-10"}},{"type":"Feature","geometry":{"type":"Point","coordinates":[-67.3252,10.1618]},"properties":{"id":"estado-VE-D","clase":"estado","nombre":"Aragua","nombre_en":"Aragua","rango":2,"fuente":"Natural Earth 1:10m (dominio publico)","confianza":"media","ultima_verificacion":"2026-09-10"}},{"type":"Feature","geometry":{"type":"Point","coordinates":[-66.8566,10.5818]},"properties":{"id":"estado-VE-X","clase":"estado","nombre":"Estado Vargas","nombre_en":"Vargas state","rango":2,"fuente":"Natural Earth 1:10m (dominio publico)","confianza":"media","ultima_verificacion":"2026-09-10"}},{"type":"Feature","geometry":{"type":"Point","coordinates":[-66.3229,10.2616]},"properties":{"id":"estado-VE-M","clase":"estado","nombre":"Miranda","nombre_en":"Miranda","rango":2,"fuente":"Natural Earth 1:10m (dominio publico)","confianza":"media","ultima_verificacion":"2026-09-10"}},{"type":"Feature","geometry":{"type":"Point","coordinates":[-64.1949,9.0559]},"properties":{"id":"estado-VE-B","clase":"estado","nombre":"Anzoátegui","nombre_en":"Anzoátegui","rango":2,"fuente":"Natural Earth 1:10m (dominio publico)","confianza":"media","ultima_verificacion":"2026-09-10"}},{"type":"Feature","geometry":{"type":"Point","coordinates":[-63.3542,10.4729]},"properties":{"id":"estado-VE-R","clase":"estado","nombre":"Sucre","nombre_en":"Sucre","rango":2,"fuente":"Natural Earth 1:10m (dominio publico)","confianza":"media","ultima_verificacion":"2026-09-10"}},{"type":"Feature","geometry":{"type":"Point","coordinates":[-63.0869,9.5039]},"properties":{"id":"estado-VE-N","clase":"estado","nombre":"Monagas","nombre_en":"Monagas","rango":2,"fuente":"Natural Earth 1:10m (dominio publico)","confianza":"media","ultima_verificacion":"2026-09-10"}},{"type":"Feature","geometry":{"type":"Point","coordinates":[-63.9689,10.9719]},"properties":{"id":"estado-VE-O","clase":"estado","nombre":"Nueva Esparta","nombre_en":"Nueva Esparta","rango":2,"fuente":"Natural Earth 1:10m (dominio publico)","confianza":"media","ultima_verificacion":"2026-09-10"}},{"type":"Feature","geometry":{"type":"Point","coordinates":[-65.3067,10.9337]},"properties":{"id":"estado-VE-W","clase":"estado","nombre":"Dependencias Federales","nombre_en":"Federal Dependencies","rango":2,"fuente":"Natural Earth 1:10m (dominio publico)","confianza":"media","ultima_verificacion":"2026-09-10"}},{"type":"Feature","geometry":{"type":"Point","coordinates":[-66.4794,8.7237]},"properties":{"id":"estado-VE-J","clase":"estado","nombre":"Guárico","nombre_en":"Guárico State","rango":2,"fuente":"Natural Earth 1:10m (dominio publico)","confianza":"media","ultima_verificacion":"2026-09-10"}},{"type":"Feature","geometry":{"type":"Point","coordinates":[-68.3738,9.3018]},"properties":{"id":"estado-VE-H","clase":"estado","nombre":"Cojedes","nombre_en":"Cojedes","rango":2,"fuente":"Natural Earth 1:10m (dominio publico)","confianza":"media","ultima_verificacion":"2026-09-10"}},{"type":"Feature","geometry":{"type":"Point","coordinates":[-66.964,10.4857]},"properties":{"id":"estado-VE-A","clase":"estado","nombre":"Capital","nombre_en":"Capital","rango":2,"fuente":"Natural Earth 1:10m (dominio publico)","confianza":"media","ultima_verificacion":"2026-09-10"}},{"type":"Feature","geometry":{"type":"Point","coordinates":[-69.9798,8.2238]},"properties":{"id":"estado-VE-E","clase":"estado","nombre":"Barinas","nombre_en":"Barinas","rango":2,"fuente":"Natural Earth 1:10m (dominio publico)","confianza":"media","ultima_verificacion":"2026-09-10"}},{"type":"Feature","geometry":{"type":"Point","coordinates":[-69.8053,10.1552]},"properties":{"id":"estado-VE-K","clase":"estado","nombre":"Lara","nombre_en":"Lara","rango":2,"fuente":"Natural Earth 1:10m (dominio publico)","confianza":"media","ultima_verificacion":"2026-09-10"}},{"type":"Feature","geometry":{"type":"Point","coordinates":[-69.3776,9.1563]},"properties":{"id":"estado-VE-P","clase":"estado","nombre":"Portuguesa","nombre_en":"Portuguesa","rango":2,"fuente":"Natural Earth 1:10m (dominio publico)","confianza":"media","ultima_verificacion":"2026-09-10"}},{"type":"Feature","geometry":{"type":"Point","coordinates":[-68.59,9.658]},"properties":{"id":"ciudad-San Carlos","clase":"ciudad","nombre":"San Carlos","nombre_en":"San Carlos","rango":3,"capital":"Admin-1 capital","fuente":"Natural Earth 1:10m (dominio publico)","confianza":"media","ultima_verificacion":"2026-09-10"}},{"type":"Feature","geometry":{"type":"Point","coordinates":[-68.746,10.336]},"properties":{"id":"ciudad-San Felipe","clase":"ciudad","nombre":"San Felipe","nombre_en":"San Felipe","rango":3,"capital":"Admin-1 capital","fuente":"Natural Earth 1:10m (dominio publico)","confianza":"media","ultima_verificacion":"2026-09-10"}},{"type":"Feature","geometry":{"type":"Point","coordinates":[-67.354,9.901]},"properties":{"id":"ciudad-San Juan De Los Morros","clase":"ciudad","nombre":"San Juan De Los Morros","nombre_en":"San Juan de los Morros","rango":3,"capital":"Admin-1 capital","fuente":"Natural Earth 1:10m (dominio publico)","confianza":"media","ultima_verificacion":"2026-09-10"}},{"type":"Feature","geometry":{"type":"Point","coordinates":[-63.8833,11.0333]},"properties":{"id":"ciudad-La Asuncion","clase":"ciudad","nombre":"La Asunción","nombre_en":"La Asunción","rango":3,"capital":"Admin-1 capital","fuente":"Natural Earth 1:10m (dominio publico)","confianza":"media","ultima_verificacion":"2026-09-10"}},{"type":"Feature","geometry":{"type":"Point","coordinates":[-70.74,7.24]},"properties":{"id":"ciudad-Guasdualito","clase":"ciudad","nombre":"Guasdualito","nombre_en":"Guasdualito","rango":3,"capital":null,"fuente":"Natural Earth 1:10m (dominio publico)","confianza":"media","ultima_verificacion":"2026-09-10"}},{"type":"Feature","geometry":{"type":"Point","coordinates":[-70.25,8.6]},"properties":{"id":"ciudad-Barinas","clase":"ciudad","nombre":"Barinas","nombre_en":"Barinas","rango":3,"capital":"Admin-1 capital","fuente":"Natural Earth 1:10m (dominio publico)","confianza":"media","ultima_verificacion":"2026-09-10"}},{"type":"Feature","geometry":{"type":"Point","coordinates":[-70.62,9.32]},"properties":{"id":"ciudad-Valera","clase":"ciudad","nombre":"Valera","nombre_en":"Valera","rango":3,"capital":null,"fuente":"Natural Earth 1:10m (dominio publico)","confianza":"media","ultima_verificacion":"2026-09-10"}},{"type":"Feature","geometry":{"type":"Point","coordinates":[-71.45,10.43]},"properties":{"id":"ciudad-Cabimas","clase":"ciudad","nombre":"Cabimas","nombre_en":"Cabimas","rango":3,"capital":null,"fuente":"Natural Earth 1:10m (dominio publico)","confianza":"media","ultima_verificacion":"2026-09-10"}},{"type":"Feature","geometry":{"type":"Point","coordinates":[-70.08,10.19]},"properties":{"id":"ciudad-Carora","clase":"ciudad","nombre":"Carora","nombre_en":"Carora","rango":3,"capital":null,"fuente":"Natural Earth 1:10m (dominio publico)","confianza":"media","ultima_verificacion":"2026-09-10"}},{"type":"Feature","geometry":{"type":"Point","coordinates":[-69.75,9.05]},"properties":{"id":"ciudad-Guanare","clase":"ciudad","nombre":"Guanare","nombre_en":"Guanare","rango":3,"capital":"Admin-1 capital","fuente":"Natural Earth 1:10m (dominio publico)","confianza":"media","ultima_verificacion":"2026-09-10"}},{"type":"Feature","geometry":{"type":"Point","coordinates":[-64.68,10.17]},"properties":{"id":"ciudad-Puerto la Cruz","clase":"ciudad","nombre":"Puerto la Cruz","nombre_en":"Puerto la Cruz","rango":3,"capital":null,"fuente":"Natural Earth 1:10m (dominio publico)","confianza":"media","ultima_verificacion":"2026-09-10"}},{"type":"Feature","geometry":{"type":"Point","coordinates":[-64.46,9.44]},"properties":{"id":"ciudad-Anaco","clase":"ciudad","nombre":"Anaco","nombre_en":"Anaco","rango":3,"capital":null,"fuente":"Natural Earth 1:10m (dominio publico)","confianza":"media","ultima_verificacion":"2026-09-10"}},{"type":"Feature","geometry":{"type":"Point","coordinates":[-67.02,10.42]},"properties":{"id":"ciudad-Los Teques","clase":"ciudad","nombre":"Los Teques","nombre_en":"Los Teques","rango":3,"capital":"Admin-1 capital","fuente":"Natural Earth 1:10m (dominio publico)","confianza":"media","ultima_verificacion":"2026-09-10"}},{"type":"Feature","geometry":{"type":"Point","coordinates":[-66.02,9.21]},"properties":{"id":"ciudad-Valle de la Pascua","clase":"ciudad","nombre":"Valle de la Pascua","nombre_en":"Valle de la Pascua","rango":3,"capital":null,"fuente":"Natural Earth 1:10m (dominio publico)","confianza":"media","ultima_verificacion":"2026-09-10"}},{"type":"Feature","geometry":{"type":"Point","coordinates":[-66.78,10.12]},"properties":{"id":"ciudad-Ocumare del Tuy","clase":"ciudad","nombre":"Ocumare del Tuy","nombre_en":"Ocumare del Tuy","rango":3,"capital":null,"fuente":"Natural Earth 1:10m (dominio publico)","confianza":"media","ultima_verificacion":"2026-09-10"}},{"type":"Feature","geometry":{"type":"Point","coordinates":[-63.23,10.67]},"properties":{"id":"ciudad-Carupano","clase":"ciudad","nombre":"Carúpano","nombre_en":"Carúpano","rango":3,"capital":null,"fuente":"Natural Earth 1:10m (dominio publico)","confianza":"media","ultima_verificacion":"2026-09-10"}},{"type":"Feature","geometry":{"type":"Point","coordinates":[-70.44,9.3804]},"properties":{"id":"ciudad-Trujillo","clase":"ciudad","nombre":"Trujillo","nombre_en":"Trujillo","rango":2,"capital":"Admin-1 capital","fuente":"Natural Earth 1:10m (dominio publico)","confianza":"media","ultima_verificacion":"2026-09-10"}},{"type":"Feature","geometry":{"type":"Point","coordinates":[-71.5039,10.5318]},"properties":{"id":"ciudad-Santa Rita","clase":"ciudad","nombre":"Santa Rita","nombre_en":"Santa Rita","rango":2,"capital":null,"fuente":"Natural Earth 1:10m (dominio publico)","confianza":"media","ultima_verificacion":"2026-09-10"}},{"type":"Feature","geometry":{"type":"Point","coordinates":[-72.5499,10.0704]},"properties":{"id":"ciudad-Machiques","clase":"ciudad","nombre":"Machiques","nombre_en":"Machiques","rango":2,"capital":null,"fuente":"Natural Earth 1:10m (dominio publico)","confianza":"media","ultima_verificacion":"2026-09-10"}},{"type":"Feature","geometry":{"type":"Point","coordinates":[-71.92,9.0104]},"properties":{"id":"ciudad-San Carlos del Zulia","clase":"ciudad","nombre":"San Carlos del Zulia","nombre_en":"San Carlos del Zulia","rango":2,"capital":null,"fuente":"Natural Earth 1:10m (dominio publico)","confianza":"media","ultima_verificacion":"2026-09-10"}},{"type":"Feature","geometry":{"type":"Point","coordinates":[-68.0065,10.4597]},"properties":{"id":"ciudad-Puerto Cabello","clase":"ciudad","nombre":"Puerto Cabello","nombre_en":"Puerto Cabello","rango":2,"capital":null,"fuente":"Natural Earth 1:10m (dominio publico)","confianza":"media","ultima_verificacion":"2026-09-10"}},{"type":"Feature","geometry":{"type":"Point","coordinates":[-69.2,9.5804]},"properties":{"id":"ciudad-Acarigua","clase":"ciudad","nombre":"Acarigua","nombre_en":"Acarigua","rango":2,"capital":null,"fuente":"Natural Earth 1:10m (dominio publico)","confianza":"media","ultima_verificacion":"2026-09-10"}},{"type":"Feature","geometry":{"type":"Point","coordinates":[-62.41,8.0204]},"properties":{"id":"ciudad-Upata","clase":"ciudad","nombre":"Upata","nombre_en":"Upata","rango":2,"capital":null,"fuente":"Natural Earth 1:10m (dominio publico)","confianza":"media","ultima_verificacion":"2026-09-10"}},{"type":"Feature","geometry":{"type":"Point","coordinates":[-62.5333,7.3504]},"properties":{"id":"ciudad-El Manteco","clase":"ciudad","nombre":"El Manteco","nombre_en":"El Manteco","rango":2,"capital":null,"fuente":"Natural Earth 1:10m (dominio publico)","confianza":"media","ultima_verificacion":"2026-09-10"}},{"type":"Feature","geometry":{"type":"Point","coordinates":[-66.2545,9.336]},"properties":{"id":"ciudad-Chaguaramas","clase":"ciudad","nombre":"Chaguaramas","nombre_en":"Chaguaramas","rango":2,"capital":null,"fuente":"Natural Earth 1:10m (dominio publico)","confianza":"media","ultima_verificacion":"2026-09-10"}},{"type":"Feature","geometry":{"type":"Point","coordinates":[-64.72,10.1304]},"properties":{"id":"ciudad-Barcelona","clase":"ciudad","nombre":"Barcelona","nombre_en":"Barcelona","rango":2,"capital":"Admin-1 capital","fuente":"Natural Earth 1:10m (dominio publico)","confianza":"media","ultima_verificacion":"2026-09-10"}},{"type":"Feature","geometry":{"type":"Point","coordinates":[-64.26,8.8903]},"properties":{"id":"ciudad-El Tigre","clase":"ciudad","nombre":"El Tigre","nombre_en":"El Tigre","rango":2,"capital":null,"fuente":"Natural Earth 1:10m (dominio publico)","confianza":"media","ultima_verificacion":"2026-09-10"}},{"type":"Feature","geometry":{"type":"Point","coordinates":[-66.97,10.6004]},"properties":{"id":"ciudad-Maiquetia","clase":"ciudad","nombre":"Maiquetía","nombre_en":"Maiquetía","rango":2,"capital":null,"fuente":"Natural Earth 1:10m (dominio publico)","confianza":"media","ultima_verificacion":"2026-09-10"}},{"type":"Feature","geometry":{"type":"Point","coordinates":[-67.44,8.9304]},"properties":{"id":"ciudad-Calabozo","clase":"ciudad","nombre":"Calabozo","nombre_en":"Calabozo","rango":2,"capital":null,"fuente":"Natural Earth 1:10m (dominio publico)","confianza":"media","ultima_verificacion":"2026-09-10"}},{"type":"Feature","geometry":{"type":"Point","coordinates":[-65.32,9.3404]},"properties":{"id":"ciudad-Zaraza","clase":"ciudad","nombre":"Zaraza","nombre_en":"Zaraza","rango":2,"capital":null,"fuente":"Natural Earth 1:10m (dominio publico)","confianza":"media","ultima_verificacion":"2026-09-10"}},{"type":"Feature","geometry":{"type":"Point","coordinates":[-66.38,9.8504]},"properties":{"id":"ciudad-Altagracia de Orituco","clase":"ciudad","nombre":"Altagracia de Orituco","nombre_en":"Altagracia de Orituco","rango":2,"capital":null,"fuente":"Natural Earth 1:10m (dominio publico)","confianza":"media","ultima_verificacion":"2026-09-10"}},{"type":"Feature","geometry":{"type":"Point","coordinates":[-62.06,9.0605]},"properties":{"id":"ciudad-Tucupita","clase":"ciudad","nombre":"Tucupita","nombre_en":"Tucupita","rango":2,"capital":"Admin-1 capital","fuente":"Natural Earth 1:10m (dominio publico)","confianza":"media","ultima_verificacion":"2026-09-10"}},{"type":"Feature","geometry":{"type":"Point","coordinates":[-63.85,10.9604]},"properties":{"id":"ciudad-Porlamar","clase":"ciudad","nombre":"Porlamar","nombre_en":"Porlamar","rango":2,"capital":null,"fuente":"Natural Earth 1:10m (dominio publico)","confianza":"media","ultima_verificacion":"2026-09-10"}},{"type":"Feature","geometry":{"type":"Point","coordinates":[-67.4699,7.9]},"properties":{"id":"ciudad-San Fernando de Apure","clase":"ciudad","nombre":"San Fernando de Apure","nombre_en":"San Fernando de Apure","rango":2,"capital":"Admin-1 capital","fuente":"Natural Earth 1:10m (dominio publico)","confianza":"media","ultima_verificacion":"2026-09-10"}},{"type":"Feature","geometry":{"type":"Point","coordinates":[-69.3019,10.0519]},"properties":{"id":"ciudad-Barquisimeto","clase":"ciudad","nombre":"Barquisimeto","nombre_en":"Barquisimeto","rango":2,"capital":"Admin-1 capital","fuente":"Natural Earth 1:10m (dominio publico)","confianza":"media","ultima_verificacion":"2026-09-10"}},{"type":"Feature","geometry":{"type":"Point","coordinates":[-63.17,9.75]},"properties":{"id":"ciudad-Maturin","clase":"ciudad","nombre":"Maturín","nombre_en":"Maturín","rango":2,"capital":"Admin-1 capital","fuente":"Natural Earth 1:10m (dominio publico)","confianza":"media","ultima_verificacion":"2026-09-10"}},{"type":"Feature","geometry":{"type":"Point","coordinates":[-64.18,10.45]},"properties":{"id":"ciudad-Cumana","clase":"ciudad","nombre":"Cumaná","nombre_en":"Cumaná","rango":2,"capital":"Admin-1 capital","fuente":"Natural Earth 1:10m (dominio publico)","confianza":"media","ultima_verificacion":"2026-09-10"}},{"type":"Feature","geometry":{"type":"Point","coordinates":[-69.68,11.42]},"properties":{"id":"ciudad-Coro","clase":"ciudad","nombre":"Coro","nombre_en":"Coro","rango":2,"capital":"Admin-1 capital","fuente":"Natural Earth 1:10m (dominio publico)","confianza":"media","ultima_verificacion":"2026-09-10"}},{"type":"Feature","geometry":{"type":"Point","coordinates":[-70.21,11.72]},"properties":{"id":"ciudad-Punto Fijo","clase":"ciudad","nombre":"Punto Fijo","nombre_en":"Punto Fijo","rango":2,"capital":null,"fuente":"Natural Earth 1:10m (dominio publico)","confianza":"media","ultima_verificacion":"2026-09-10"}},{"type":"Feature","geometry":{"type":"Point","coordinates":[-65.5466,3.1738]},"properties":{"id":"ciudad-La Esmeralda","clase":"ciudad","nombre":"La Esmeralda","nombre_en":"La Esmeralda","rango":2,"capital":null,"fuente":"Natural Earth 1:10m (dominio publico)","confianza":"media","ultima_verificacion":"2026-09-10"}},{"type":"Feature","geometry":{"type":"Point","coordinates":[-63.6,8.1]},"properties":{"id":"ciudad-Ciudad Bolivar","clase":"ciudad","nombre":"Ciudad Bolívar","nombre_en":"Ciudad Bolívar","rango":2,"capital":"Admin-1 capital","fuente":"Natural Earth 1:10m (dominio publico)","confianza":"media","ultima_verificacion":"2026-09-10"}},{"type":"Feature","geometry":{"type":"Point","coordinates":[-61.6333,6.7333]},"properties":{"id":"ciudad-El Dorado","clase":"ciudad","nombre":"El Dorado","nombre_en":"El Dorado","rango":2,"capital":null,"fuente":"Natural Earth 1:10m (dominio publico)","confianza":"media","ultima_verificacion":"2026-09-10"}},{"type":"Feature","geometry":{"type":"Point","coordinates":[-67.5978,10.2488]},"properties":{"id":"ciudad-Maracay","clase":"ciudad","nombre":"Maracay","nombre_en":"Maracay","rango":2,"capital":null,"fuente":"Natural Earth 1:10m (dominio publico)","confianza":"media","ultima_verificacion":"2026-09-10"}},{"type":"Feature","geometry":{"type":"Point","coordinates":[-71.1825,8.5695]},"properties":{"id":"ciudad-Merida","clase":"ciudad","nombre":"Mérida","nombre_en":"Mérida","rango":1,"capital":"Admin-1 capital","fuente":"Natural Earth 1:10m (dominio publico)","confianza":"media","ultima_verificacion":"2026-09-10"}},{"type":"Feature","geometry":{"type":"Point","coordinates":[-67.6236,5.6639]},"properties":{"id":"ciudad-Puerto Ayacucho","clase":"ciudad","nombre":"Puerto Ayacucho","nombre_en":"Puerto Ayacucho","rango":1,"capital":"Admin-1 capital","fuente":"Natural Earth 1:10m (dominio publico)","confianza":"media","ultima_verificacion":"2026-09-10"}},{"type":"Feature","geometry":{"type":"Point","coordinates":[-72.25,7.77]},"properties":{"id":"ciudad-San Cristobal","clase":"ciudad","nombre":"San Cristóbal","nombre_en":"San Cristóbal","rango":1,"capital":"Admin-1 capital","fuente":"Natural Earth 1:10m (dominio publico)","confianza":"media","ultima_verificacion":"2026-09-10"}},{"type":"Feature","geometry":{"type":"Point","coordinates":[-67.982,10.2319]},"properties":{"id":"ciudad-Valencia","clase":"ciudad","nombre":"Valencia","nombre_en":"Valencia","rango":1,"capital":"Admin-1 capital","fuente":"Natural Earth 1:10m (dominio publico)","confianza":"media","ultima_verificacion":"2026-09-10"}},{"type":"Feature","geometry":{"type":"Point","coordinates":[-62.62,8.37]},"properties":{"id":"ciudad-Ciudad Guayana","clase":"ciudad","nombre":"Ciudad Guayana","nombre_en":"Ciudad Guayana","rango":1,"capital":null,"fuente":"Natural Earth 1:10m (dominio publico)","confianza":"media","ultima_verificacion":"2026-09-10"}},{"type":"Feature","geometry":{"type":"Point","coordinates":[-71.6619,10.7319]},"properties":{"id":"ciudad-Maracaibo","clase":"ciudad","nombre":"Maracaibo","nombre_en":"Maracaibo","rango":1,"capital":"Admin-1 capital","fuente":"Natural Earth 1:10m (dominio publico)","confianza":"media","ultima_verificacion":"2026-09-10"}},{"type":"Feature","geometry":{"type":"Point","coordinates":[-66.919,10.5029]},"properties":{"id":"ciudad-Caracas","clase":"ciudad","nombre":"Caracas","nombre_en":"Caracas","rango":1,"capital":"Admin-0 capital","fuente":"Natural Earth 1:10m (dominio publico)","confianza":"media","ultima_verificacion":"2026-09-10"}}]}