{"type":"FeatureCollection","features":[{"type":"Feature","geometry":{"type":"LineString","coordinates":[[-60.7399,5.2021],[-60.8169,5.2851],[-60.8927,5.3686],[-60.9685,5.4521],[-61.0443,5.5356],[-61.12,5.6191],[-61.1958,5.7027],[-61.2716,5.7861],[-61.3474,5.8697],[-61.3796,5.9053],[-61.3967,5.9456],[-61.3863,5.9566],[-61.3528,5.9752],[-61.3381,5.9868],[-61.2912,6.0612],[-61.2786,6.093],[-61.2694,6.1072],[-61.2561,6.1144],[-61.2229,6.1205],[-61.2065,6.1258],[-61.1945,6.1329],[-61.1847,6.146],[-61.174,6.1716],[-61.1611,6.1829],[-61.1473,6.1851],[-61.1327,6.1836],[-61.1216,6.1867],[-61.1184,6.2026],[-61.118,6.2162],[-61.1129,6.2541],[-61.1148,6.264],[-61.1179,6.2672],[-61.1214,6.2695],[-61.1241,6.2762],[-61.1291,6.2833],[-61.1467,6.2942],[-61.152,6.3034],[-61.1595,6.3313],[-61.1609,6.3424],[-61.1548,6.3906],[-61.1499,6.4044],[-61.1411,6.4165],[-61.139,6.4248],[-61.1386,6.4331],[-61.1398,6.4413],[-61.1426,6.4494],[-61.1535,6.4644],[-61.163,6.4943],[-61.1709,6.5092],[-61.1861,6.5233],[-61.2001,6.5311],[-61.2097,6.541],[-61.212,6.5614],[-61.2048,6.5958],[-61.1902,6.6329],[-61.1707,6.6685],[-61.1393,6.7044],[-61.1298,6.7158],[-61.111,6.7195],[-61.0891,6.7175],[-61.0704,6.7119],[-61.0612,6.7301],[-61.0401,6.727],[-61.0187,6.7204],[-61.0003,6.7344],[-60.9546,6.7287],[-60.9338,6.7317],[-60.9284,6.7359],[-60.9012,6.7644],[-60.8995,6.7686],[-60.8991,6.7768],[-60.9013,6.786],[-60.9112,6.8],[-60.9134,6.8112],[-60.9076,6.8152],[-60.8946,6.8142],[-60.8724,6.8081],[-60.8657,6.8033],[-60.8585,6.7965],[-60.8496,6.7899],[-60.8376,6.7864],[-60.8283,6.7871],[-60.8053,6.7925],[-60.7935,6.7938],[-60.7731,6.7884],[-60.7365,6.7648],[-60.7215,6.7597],[-60.7003,6.7671],[-60.6841,6.784],[-60.6558,6.8246],[-60.6395,6.8377],[-60.6207,6.8459],[-60.5487,6.8631],[-60.421,6.9422],[-60.3942,6.9485],[-60.3773,6.9385],[-60.3681,6.9881],[-60.3597,7.0049],[-60.3446,7.0176],[-60.3276,7.0286],[-60.3134,7.0402],[-60.3036,7.0541],[-60.2958,7.0707],[-60.2916,7.0883],[-60.2923,7.1053],[-60.2999,7.121],[-60.3128,7.1326],[-60.3476,7.1519],[-60.3483,7.1527],[-60.3601,7.1658],[-60.372,7.1723],[-60.3852,7.1733],[-60.4015,7.1709],[-60.4158,7.1713],[-60.4267,7.1769],[-60.4371,7.1837],[-60.4495,7.1883],[-60.4753,7.1885],[-60.4966,7.1806],[-60.5129,7.1652],[-60.5349,7.1258],[-60.548,7.1255],[-60.6176,7.1804],[-60.6284,7.1911],[-60.6431,7.2209],[-60.6436,7.2507],[-60.6311,7.2777],[-60.6068,7.2995],[-60.6022,7.3065],[-60.6,7.3139],[-60.5999,7.3219],[-60.6018,7.3301],[-60.6106,7.3436],[-60.622,7.3715],[-60.629,7.3844],[-60.6361,7.3898],[-60.6452,7.3934],[-60.6532,7.3985],[-60.6573,7.4081],[-60.6569,7.4166],[-60.6558,7.4229],[-60.6563,7.4288],[-60.6606,7.4361],[-60.6742,7.4455],[-60.6881,7.4486],[-60.7007,7.4535],[-60.7238,7.4958],[-60.7297,7.5103],[-60.7306,7.5254],[-60.7165,7.5516],[-60.6711,7.5661],[-60.6556,7.5852],[-60.6415,7.6109],[-60.6317,7.6246],[-60.6252,7.6295],[-60.6107,7.6268],[-60.6013,7.6338],[-60.5975,7.6467],[-60.5999,7.6615],[-60.5845,7.6885],[-60.5844,7.6994],[-60.5877,7.7183],[-60.587,7.7271],[-60.5821,7.7363],[-60.5596,7.763],[-60.5398,7.8001],[-60.5258,7.8134],[-60.5033,7.8209],[-60.4185,7.8194],[-60.3748,7.8236],[-60.3504,7.8418],[-60.3424,7.8648],[-60.3203,7.8847],[-60.2719,7.9178],[-60.268,7.9213],[-60.2533,7.9346],[-60.243,7.9506],[-60.2311,7.9641],[-60.1831,7.9827],[-60.1657,7.997],[-60.1498,8.0135],[-60.1292,8.0288],[-60.1079,8.0356],[-60.068,8.0318],[-60.0465,8.0329],[-60.0296,8.0428],[-60.0195,8.0603],[-60.011,8.1004],[-59.9993,8.1154],[-59.998,8.1271],[-60.0005,8.1385],[-60.0007,8.1529],[-59.9933,8.1685],[-59.9677,8.1884],[-59.9571,8.2001],[-59.9397,8.2084],[-59.8898,8.2199],[-59.8692,8.2211],[-59.8485,8.2277],[-59.8293,8.2451],[-59.8167,8.2672],[-59.8156,8.2878],[-59.8556,8.3521],[-59.9597,8.4682],[-60.021,8.558],[-60.0011,8.5489],[-59.9682,8.5276],[-59.9325,8.4918],[-59.8753,8.4052],[-59.8378,8.3693],[-59.8094,8.3547],[-59.7606,8.3415],[-59.7354,8.3289],[-59.6806,8.2892],[-59.6518,8.2737],[-59.6222,8.2675],[-59.6131,8.2521],[-59.6112,8.2501],[-59.6099,8.2421],[-59.6059,8.2403],[-59.5997,8.241],[-59.5434,8.2295],[-59.5361,8.2225],[-59.523,8.2065],[-59.4337,8.1303],[-59.4568,8.1672],[-59.4917,8.2013],[-59.5336,8.2289],[-59.6086,8.2594],[-59.7007,8.3227],[-59.7613,8.3555],[-59.7695,8.3665],[-59.7818,8.3942],[-59.7795,8.4071],[-59.7558,8.4109],[-59.7394,8.4036],[-59.704,8.3756],[-59.6632,8.3635],[-59.6434,8.35],[-59.6112,8.3227],[-59.5454,8.2838],[-59.4541,8.2426],[-59.3479,8.1668],[-59.1652,8.0587],[-59.1048,8.0136],[-59.0901,8],[-59.0754,7.9808],[-59.0214,7.931],[-58.8848,7.7787],[-58.8334,7.7383],[-58.8042,7.6962],[-58.7786,7.6624],[-58.7541,7.6121],[-58.7376,7.5883],[-58.7339,7.5947],[-58.7439,7.6194],[-58.742,7.6303],[-58.7282,7.6293],[-58.7034,7.621],[-58.6824,7.6035],[-58.6632,7.5852],[-58.6467,7.5651],[-58.6303,7.5404],[-58.6093,7.5065],[-58.5841,7.4758],[-58.5682,7.4533],[-58.4897,7.3761],[-58.4716,7.3454],[-58.4642,7.3122],[-58.4742,7.28],[-58.4674,7.2874],[-58.4725,7.2445],[-58.4674,7.1161],[-58.485,7.0108],[-58.4974,6.9948],[-58.5196,6.9776],[-58.5356,6.9653],[-58.5507,6.9471],[-58.5616,6.9272],[-58.5682,6.9068],[-58.574,6.8684],[-58.5977,6.8083],[-58.5998,6.7873],[-58.5977,6.7216],[-58.5998,6.7113],[-58.6092,6.6989],[-58.6114,6.6878],[-58.6114,6.5097],[-58.617,6.4881],[-58.6199,6.4769],[-58.6864,6.3825],[-58.6822,6.3798],[-58.6796,6.3762],[-58.6488,6.4042],[-58.6387,6.4103],[-58.6356,6.4144],[-58.6329,6.4201],[-58.6289,6.4233],[-58.6154,6.4174],[-58.6068,6.4163],[-58.6021,6.4166],[-58.6,6.4054],[-58.5999,6.361],[-58.5977,6.3415],[-58.5738,6.2936],[-58.5704,6.2763],[-58.5709,6.2672],[-58.5725,6.2579],[-58.5757,6.2495],[-58.5806,6.2425],[-58.583,6.2351],[-58.579,6.2269],[-58.5733,6.218],[-58.5704,6.2084],[-58.5846,6.0748],[-58.584,6.0541],[-58.5732,6.0299],[-58.5704,6.0194],[-58.5704,5.9374],[-58.5734,5.9136],[-58.5865,5.895],[-58.6114,5.8419],[-58.6154,5.8194],[-58.6114,5.7562],[-58.6183,5.6923],[-58.6173,5.6234],[-58.6229,5.5811],[-58.6348,5.5404],[-58.6529,5.4992],[-58.6758,5.4554],[-58.6931,5.4376],[-58.7172,5.4303],[-58.8038,5.4167],[-58.8449,5.4149],[-58.8591,5.4086],[-58.8664,5.3882],[-58.8754,5.3718],[-58.8788,5.3621],[-58.88,5.351],[-58.8798,5.3417],[-58.8806,5.3338],[-58.8851,5.3267],[-58.8384,5.256],[-58.827,5.2448],[-58.8207,5.2291],[-58.8219,5.157],[-58.8461,5.0127],[-58.8441,4.9716],[-58.8198,4.908],[-58.7944,4.7658],[-58.7808,4.7488],[-58.7352,4.7622],[-58.7207,4.7466],[-58.7063,4.7041],[-58.6722,4.657],[-58.6481,4.6323],[-58.6287,4.6216],[-58.6185,4.6117],[-58.5865,4.5637],[-58.5704,4.5465],[-58.5344,4.5346],[-58.5288,4.5291],[-58.5021,4.5089],[-58.4983,4.5049],[-58.4859,4.4958],[-58.4769,4.4742],[-58.4673,4.4291],[-58.4605,4.3441],[-58.4656,4.3336],[-58.4886,4.3093],[-58.4946,4.2926],[-58.4914,4.2684],[-58.472,4.2286],[-58.4673,4.207],[-58.468,4.1865],[-58.4715,4.1683],[-58.4796,4.1498],[-58.4946,4.1287],[-58.5598,4.0707],[-58.5705,4.064],[-58.5823,4.0591],[-58.5889,4.0521],[-58.584,4.0394],[-58.5749,4.0325],[-58.5636,4.031],[-58.5524,4.0338],[-58.5431,4.0394],[-58.5224,4.0314],[-58.4984,4.0263],[-58.4761,4.0277],[-58.4605,4.0394],[-58.4394,4.0319],[-58.4416,4.0289],[-58.4426,4.0282],[-58.4438,4.0278],[-58.4469,4.0257],[-58.438,4.0103],[-58.4258,3.9642],[-58.4137,3.9362],[-58.4121,3.9258],[-58.4079,3.9167],[-58.3896,3.901],[-58.3854,3.8917],[-58.381,3.8738],[-58.3616,3.8389],[-58.3575,3.8196],[-58.3606,3.8046],[-58.3758,3.766],[-58.382,3.7582],[-58.4039,3.7454],[-58.3835,3.7167],[-58.3301,3.6688],[-58.3289,3.652],[-58.3325,3.6119],[-58.3271,3.5974],[-58.3204,3.5932],[-58.3022,3.5853],[-58.296,3.5806],[-58.2923,3.5726],[-58.2668,3.4188],[-58.2551,3.3876],[-58.2472,3.3794],[-58.2407,3.3756],[-58.2362,3.3702],[-58.2346,3.3572],[-58.2445,3.32],[-58.2427,3.3115],[-58.2504,3.2713],[-58.2551,3.2579],[-58.2714,3.2255],[-58.2746,3.2094],[-58.2756,3.1859],[-58.2847,3.1619],[-58.3006,3.1486],[-58.3057,3.1361],[-58.2824,3.1139],[-58.2172,3.0661],[-58.1938,3.0635],[-58.1819,3.0565],[-58.1732,3.0457],[-58.1595,3.032],[-58.1547,3.0174],[-58.1493,3.003],[-58.1506,2.9875],[-58.1595,2.9699],[-58.1666,2.9636],[-58.1738,2.9615],[-58.1805,2.9586],[-58.1861,2.95],[-58.1885,2.9374],[-58.1846,2.9314],[-58.178,2.9261],[-58.1725,2.9153],[-58.1696,2.9005],[-58.1689,2.8856],[-58.1716,2.8719],[-58.1793,2.8607],[-58.1854,2.8581],[-58.2012,2.856],[-58.2067,2.8532],[-58.2091,2.8475],[-58.2141,2.8265],[-58.2141,2.8191],[-58.2024,2.8159],[-58.1926,2.8153],[-58.183,2.8117],[-58.1725,2.7993],[-58.1678,2.7879],[-58.1656,2.7744],[-58.1678,2.763],[-58.1759,2.7582],[-58.188,2.7457],[-58.2054,2.7201],[-58.2244,2.6998],[-58.2414,2.703],[-58.2573,2.6903],[-58.2654,2.6691],[-58.2703,2.605],[-58.2824,2.5454],[-58.284,2.5054],[-58.287,2.49],[-58.296,2.4771],[-58.3119,2.4693],[-58.3472,2.4681],[-58.3649,2.4634],[-58.3468,2.4374],[-58.3401,2.4235],[-58.337,2.4082],[-58.3392,2.394],[-58.3503,2.3679],[-58.3512,2.3536],[-58.3419,2.3353],[-58.3269,2.3299],[-58.3138,2.3397],[-58.3103,2.3672],[-58.2893,2.3554],[-58.2792,2.3427],[-58.2793,2.3286],[-58.2892,2.3126],[-58.3096,2.2947],[-58.3165,2.2847],[-58.3286,2.2543],[-58.337,2.2443],[-58.3383,2.2484],[-58.3445,2.2573],[-58.348,2.2142],[-58.3512,2.2027],[-58.3589,2.194],[-58.3661,2.1932],[-58.3709,2.2005],[-58.3711,2.2164],[-58.3852,2.2067],[-58.3962,2.1905],[-58.4033,2.1727],[-58.4059,2.158],[-58.3989,2.1244],[-58.3981,2.1049],[-58.4059,2.0861],[-58.4059,2.0929],[-58.498,1.9923],[-58.5157,1.9631],[-58.5192,1.961],[-58.523,1.9622],[-58.5265,1.962],[-58.5288,1.9557],[-58.5284,1.9505],[-58.5232,1.9476],[-58.522,1.9427],[-58.5273,1.8629],[-58.5431,1.7782],[-58.5425,1.7717],[-58.5396,1.7675],[-58.5392,1.7625],[-58.5461,1.7534],[-58.5515,1.7491],[-58.5666,1.7403],[-58.5698,1.7374],[-58.5724,1.7343],[-58.5768,1.7277],[-58.5887,1.7047],[-58.6102,1.6798],[-58.6135,1.6625],[-58.6114,1.6438],[-58.6114,1.6206],[-58.6345,1.5734],[-58.6387,1.5619],[-58.644,1.5582],[-58.6702,1.5591],[-58.6796,1.5585],[-58.6887,1.5523],[-58.6946,1.5443],[-58.7063,1.5237],[-58.7218,1.5328],[-58.7306,1.531],[-58.7359,1.5223],[-58.7411,1.5107],[-58.7407,1.5054],[-58.7377,1.499],[-58.7363,1.4915],[-58.7411,1.4827],[-58.748,1.4781],[-58.7545,1.4774],[-58.7612,1.4777],[-58.7893,1.4721],[-58.7978,1.467],[-58.8038,1.4561],[-58.8047,1.4425],[-58.7893,1.3866],[-58.7773,1.3628],[-58.774,1.3373],[-58.7899,1.313],[-58.7929,1.3084],[-58.8055,1.2658],[-58.8141,1.2269],[-58.816,1.1873],[-58.834,1.1858],[-58.852,1.1887],[-58.8721,1.1972],[-58.8979,1.2178],[-58.9065,1.2385],[-58.9117,1.2602],[-58.9275,1.2842],[-58.946,1.299],[-58.9665,1.3102],[-58.972,1.3123],[-59.0111,1.3276],[-59.178,1.3571],[-59.2421,1.3778],[-59.2599,1.3874],[-59.2724,1.4042],[-59.2938,1.4521],[-59.3022,1.463],[-59.3203,1.4735],[-59.3247,1.4908],[-59.3269,1.5095],[-59.3386,1.5246],[-59.3477,1.526],[-59.368,1.5204],[-59.3802,1.5233],[-59.3839,1.5279],[-59.391,1.5437],[-59.3946,1.5494],[-59.3997,1.552],[-59.4121,1.5533],[-59.4168,1.5553],[-59.4259,1.566],[-59.4455,1.601],[-59.4548,1.6113],[-59.486,1.6361],[-59.5028,1.6577],[-59.5307,1.7031],[-59.5515,1.7205],[-59.5727,1.7272],[-59.5906,1.7249],[-59.6079,1.72],[-59.6282,1.7188],[-59.6397,1.7218],[-59.6498,1.727],[-59.659,1.7341],[-59.6808,1.7574],[-59.6825,1.7656],[-59.6665,1.7871],[-59.6455,1.8277],[-59.6465,1.84],[-59.6491,1.8414],[-59.6555,1.8397],[-59.668,1.8427],[-59.7056,1.8574],[-59.7172,1.8581],[-59.7375,1.8508],[-59.7497,1.8513],[-59.7588,1.8621],[-59.7636,1.8826],[-59.7651,1.9046],[-59.7645,1.9205],[-59.7609,1.9319],[-59.7484,1.9513],[-59.7438,1.9618],[-59.7428,1.971],[-59.7453,1.9972],[-59.7435,2.0057],[-59.7378,2.0222],[-59.7371,2.0304],[-59.7404,2.0414],[-59.7515,2.0623],[-59.753,2.0755],[-59.7498,2.086],[-59.7386,2.1036],[-59.7354,2.1135],[-59.7359,2.1237],[-59.745,2.1535],[-59.7458,2.1908],[-59.7402,2.2295],[-59.7417,2.2638],[-59.7632,2.288],[-59.7723,2.2904],[-59.7918,2.2909],[-59.8012,2.2927],[-59.8136,2.2992],[-59.8442,2.3254],[-59.8841,2.346],[-59.9031,2.3596],[-59.9134,2.3787],[-59.9118,2.3878],[-59.9015,2.4045],[-59.9018,2.4156],[-59.904,2.4262],[-59.9051,2.4479],[-59.9068,2.4588],[-59.9358,2.5239],[-59.9395,2.543],[-59.9392,2.5555],[-59.9407,2.563],[-59.949,2.5798],[-59.9531,2.5839],[-59.966,2.5887],[-59.971,2.5926],[-59.9703,2.5958],[-59.9653,2.6081],[-59.965,2.6134],[-59.9965,2.6748],[-60.0001,2.694],[-59.9937,2.8573],[-59.973,2.9393],[-59.9704,2.9604],[-59.974,3.0176],[-59.9692,3.0427],[-59.9594,3.0665],[-59.9327,3.11],[-59.9274,3.1143],[-59.9208,3.1168],[-59.9149,3.12],[-59.9116,3.1264],[-59.9127,3.1334],[-59.9202,3.144],[-59.9216,3.1501],[-59.9184,3.1528],[-59.9057,3.1548],[-59.9032,3.1587],[-59.9054,3.1652],[-59.9139,3.1746],[-59.9169,3.1812],[-59.9167,3.1942],[-59.9115,3.2019],[-59.9042,3.2082],[-59.8976,3.2174],[-59.884,3.2625],[-59.8796,3.2726],[-59.8537,3.3154],[-59.8432,3.349],[-59.84,3.3499],[-59.8337,3.3503],[-59.8268,3.3519],[-59.8218,3.3566],[-59.821,3.3635],[-59.8271,3.3767],[-59.8285,3.3834],[-59.824,3.4317],[-59.8414,3.4254],[-59.8385,3.443],[-59.8214,3.4844],[-59.8295,3.5098],[-59.8476,3.5305],[-59.863,3.5524],[-59.8629,3.5817],[-59.8377,3.6093],[-59.7555,3.6381],[-59.7176,3.6732],[-59.6951,3.6831],[-59.6862,3.6902],[-59.6801,3.7017],[-59.6796,3.7103],[-59.6808,3.7192],[-59.6802,3.7311],[-59.6718,3.7562],[-59.6591,3.7689],[-59.6183,3.7872],[-59.5986,3.8024],[-59.5954,3.8165],[-59.5997,3.8331],[-59.6025,3.8557],[-59.5963,3.8759],[-59.5818,3.8992],[-59.5632,3.9182],[-59.5446,3.9257],[-59.5347,3.9271],[-59.5292,3.9319],[-59.5277,3.9395],[-59.5296,3.9495],[-59.5368,3.9577],[-59.5487,3.9619],[-59.5804,3.9671],[-59.59,3.9667],[-59.5963,3.9706],[-59.5954,3.9964],[-59.5997,4.0023],[-59.6057,4.0071],[-59.6198,4.0327],[-59.6537,4.0642],[-59.6633,4.0797],[-59.6601,4.1032],[-59.649,4.1198],[-59.6462,4.134],[-59.6674,4.1506],[-59.7103,4.1645],[-59.7267,4.1765],[-59.7385,4.2028],[-59.7404,4.2136],[-59.7405,4.2223],[-59.738,4.24],[-59.7355,4.2458],[-59.7266,4.2577],[-59.7245,4.2641],[-59.7266,4.2707],[-59.7367,4.2821],[-59.7385,4.2866],[-59.7278,4.3053],[-59.6936,4.3407],[-59.6874,4.3645],[-59.6871,4.3715],[-59.6867,4.3812],[-59.6905,4.3845],[-59.702,4.3857],[-59.7135,4.3894],[-59.7223,4.3977],[-59.7299,4.4075],[-59.738,4.4156],[-59.7963,4.4482],[-59.8096,4.4657],[-59.8177,4.4568],[-59.8262,4.4546],[-59.8476,4.4602],[-59.8524,4.4608],[-59.8632,4.4607],[-59.8676,4.462],[-59.8717,4.4682],[-59.8688,4.4809],[-59.8729,4.4847],[-59.8858,4.4847],[-59.9053,4.4753],[-59.9146,4.4744],[-59.9199,4.4792],[-59.9343,4.4983],[-59.9433,4.5039],[-59.9531,4.5059],[-59.9647,4.5065],[-59.9746,4.5037],[-59.9789,4.4954],[-59.9846,4.4888],[-59.997,4.4908],[-60.0207,4.4989],[-60.0402,4.4959],[-60.0556,4.4916],[-60.0663,4.4943],[-60.0715,4.5125],[-60.0769,4.52],[-60.0878,4.5255],[-60.0986,4.526],[-60.1038,4.518],[-60.1062,4.5066],[-60.112,4.5022],[-60.1209,4.5024],[-60.1329,4.5049],[-60.1488,4.513],[-60.16,4.5278],[-60.1649,4.5462],[-60.1615,4.5652],[-60.1348,4.5935],[-60.1262,4.595],[-60.1061,4.5954],[-60.0971,4.5986],[-60.0877,4.6075],[-60.0843,4.6169],[-60.0832,4.6271],[-60.0807,4.6383],[-60.0756,4.6503],[-60.0471,4.6918],[-60.0385,4.708],[-60.0325,4.7254],[-60.0301,4.7444],[-60.0345,4.7878],[-60.0205,4.8323],[-60.018,4.8922],[-60.011,4.9217],[-60.0036,4.9398],[-60.0002,4.9583],[-59.9993,4.9969],[-59.9815,5.0574],[-59.9831,5.0859],[-60.011,5.1],[-60.0551,5.1251],[-60.0757,5.1408],[-60.0887,5.1554],[-60.0912,5.1582],[-60.123,5.2319],[-60.1317,5.2434],[-60.1766,5.2271],[-60.1909,5.2399],[-60.2003,5.2635],[-60.2134,5.2672],[-60.2552,5.2565],[-60.2737,5.2474],[-60.3141,5.2069],[-60.3331,5.1938],[-60.355,5.1932],[-60.3989,5.2083],[-60.4198,5.2072],[-60.4274,5.2008],[-60.4391,5.1814],[-60.449,5.1742],[-60.4564,5.1747],[-60.4631,5.18],[-60.47,5.1869],[-60.4775,5.1919],[-60.4974,5.1959],[-60.5538,5.1881],[-60.5683,5.1897],[-60.5794,5.1949],[-60.5897,5.2012],[-60.6018,5.2066],[-60.6136,5.2089],[-60.673,5.213],[-60.6952,5.2119],[-60.7399,5.2021]]},"properties":{"id":"DISPUTA-ESEQUIBO","nombre":"West of Essequibo River","tipo":"limite","nivel":"disputa","sector":"contexto","estado":"desconocido","clasificacion_fuente":"Disputed","administrado_por":"Guyana","fuente":"Natural Earth, ne_10m_admin_0_disputed_areas (dominio publico). Clasificada por la propia fuente como TYPE: Disputed.","confianza":"media","ultima_verificacion":"2026-09-09","notas":"Territorio en disputa entre Venezuela y Guyana. El proyecto no toma posicion: se muestra la zona con la clasificacion que le da la propia fuente. Ver docs/DATA_SOURCES.md seccion 13."}}]}